start=new Date('2021-09-24T00:00:00.000Z').valueOf();
sats=[{"SITE":"AFETR","ECCENTRICITY":"0.00019790","TLE_LINE2":"2 44930  53.0556  94.3530 0001979  95.1162 265.0053 15.06402350 94493","ARG_OF_PERICENTER":"95.1162","OBJECT_NAME":"STARLINK-1123","TIME_SYSTEM":"UTC","MEAN_ELEMENT_THEORY":"SGP4","TLE_LINE1":"1 44930U 20001S   21266.83566057  .00000830  00000-0  74631-4 0  9996","FILE":"3125337","EPOCH":"2021-09-23T20:03:21.073248","CLASSIFICATION_TYPE":"U","MEAN_MOTION":"15.06402350","SEMIMAJOR_AXIS":"6925.341","PERIAPSIS":"545.836","LAUNCH_DATE":"2020-01-07","CENTER_NAME":"EARTH","REV_AT_EPOCH":"9449","INCLINATION":"53.0556","OBJECT_TYPE":"PAYLOAD","GP_ID":"185347254","MEAN_MOTION_DDOT":"0.0000000000000","OBJECT_ID":"2020-001S","MEAN_MOTION_DOT":"0.00000830","RCS_SIZE":"LARGE","NORAD_CAT_ID":"44930","REF_FRAME":"TEME","ELEMENT_SET_NO":"999","DECAY_DATE":null,"COUNTRY_CODE":"US","PERIOD":"95.592","RA_OF_ASC_NODE":"94.3530","MEAN_ANOMALY":"265.0053","EPHEMERIS_TYPE":"0","BSTAR":"0.00007463100000","APOAPSIS":"548.577"},{"PERIOD":"95.592","NORAD_CAT_ID":"44931","REF_FRAME":"TEME","DECAY_DATE":null,"ELEMENT_SET_NO":"999","COUNTRY_CODE":"US","EPHEMERIS_TYPE":"0","BSTAR":"0.00008379200000","APOAPSIS":"548.624","RA_OF_ASC_NODE":"94.4411","MEAN_ANOMALY":"271.5802","INCLINATION":"53.0533","OBJECT_TYPE":"PAYLOAD","REV_AT_EPOCH":"9523","MEAN_MOTION_DOT":"0.00000966","RCS_SIZE":"LARGE","GP_ID":"185348498","MEAN_MOTION_DDOT":"0.0000000000000","OBJECT_ID":"2020-001T","FILE":"3125337","EPOCH":"2021-09-23T19:31:31.289376","CLASSIFICATION_TYPE":"U","PERIAPSIS":"545.833","LAUNCH_DATE":"2020-01-07","CENTER_NAME":"EARTH","MEAN_MOTION":"15.06394981","SEMIMAJOR_AXIS":"6925.364","TLE_LINE2":"2 44931  53.0533  94.4411 0002015  88.5418 271.5802 15.06394981 95237","ARG_OF_PERICENTER":"88.5418","OBJECT_NAME":"STARLINK-1128","SITE":"AFETR","ECCENTRICITY":"0.00020150","TLE_LINE1":"1 44931U 20001T   21266.81355659  .00000966  00000-0  83792-4 0  9997","MEAN_ELEMENT_THEORY":"SGP4","TIME_SYSTEM":"UTC"},{"TIME_SYSTEM":"UTC","MEAN_ELEMENT_THEORY":"SGP4","TLE_LINE1":"1 44932U 20001U   21266.82460241  .00001137  00000-0  95238-4 0  9992","ECCENTRICITY":"0.00020620","SITE":"AFETR","OBJECT_NAME":"STARLINK-1130","ARG_OF_PERICENTER":"85.2515","TLE_LINE2":"2 44932  53.0559  94.4033 0002062  85.2515 274.8709 15.06400900 95725","SEMIMAJOR_AXIS":"6925.346","MEAN_MOTION":"15.06400900","CENTER_NAME":"EARTH","LAUNCH_DATE":"2020-01-07","PERIAPSIS":"545.783","EPOCH":"2021-09-23T19:47:25.648224","CLASSIFICATION_TYPE":"U","FILE":"3125337","MEAN_MOTION_DDOT":"0.0000000000000","OBJECT_ID":"2020-001U","GP_ID":"185348754","MEAN_MOTION_DOT":"0.00001137","RCS_SIZE":"LARGE","REV_AT_EPOCH":"9572","OBJECT_TYPE":"PAYLOAD","INCLINATION":"53.0559","MEAN_ANOMALY":"274.8709","RA_OF_ASC_NODE":"94.4033","APOAPSIS":"548.639","EPHEMERIS_TYPE":"0","BSTAR":"0.00009523800000","DECAY_DATE":null,"ELEMENT_SET_NO":"999","COUNTRY_CODE":"US","NORAD_CAT_ID":"44932","REF_FRAME":"TEME","PERIOD":"95.592"},{"MEAN_ANOMALY":"273.0907","RA_OF_ASC_NODE":"94.5765","APOAPSIS":"548.618","BSTAR":"0.00007528200000","EPHEMERIS_TYPE":"0","COUNTRY_CODE":"US","ELEMENT_SET_NO":"999","DECAY_DATE":null,"REF_FRAME":"TEME","NORAD_CAT_ID":"44933","PERIOD":"95.592","OBJECT_ID":"2020-001V","MEAN_MOTION_DDOT":"0.0000000000000","GP_ID":"185347007","RCS_SIZE":"LARGE","MEAN_MOTION_DOT":"0.00000840","REV_AT_EPOCH":"9577","OBJECT_TYPE":"PAYLOAD","INCLINATION":"53.0546","SEMIMAJOR_AXIS":"6925.330","MEAN_MOTION":"15.06405980","CENTER_NAME":"EARTH","PERIAPSIS":"545.773","LAUNCH_DATE":"2020-01-07","CLASSIFICATION_TYPE":"U","EPOCH":"2021-09-23T18:49:01.789536","FILE":"3125337","TIME_SYSTEM":"UTC","MEAN_ELEMENT_THEORY":"SGP4","TLE_LINE1":"1 44933U 20001V   21266.78404849  .00000840  00000-0  75282-4 0  9997","ECCENTRICITY":"0.00020540","SITE":"AFETR","OBJECT_NAME":"STARLINK-1144","ARG_OF_PERICENTER":"87.0317","TLE_LINE2":"2 44933  53.0546  94.5765 0002054  87.0317 273.0907 15.06405980 95775"},{"MEAN_MOTION":"15.06410677","SEMIMAJOR_AXIS":"6925.316","PERIAPSIS":"545.848","LAUNCH_DATE":"2020-01-07","CENTER_NAME":"EARTH","FILE":"3125337","CLASSIFICATION_TYPE":"U","EPOCH":"2021-09-23T17:32:06.241920","MEAN_ELEMENT_THEORY":"SGP4","TIME_SYSTEM":"UTC","TLE_LINE1":"1 44934U 20001W   21266.73062780  .00001722  00000-0  13442-3 0  9996","SITE":"AFETR","ECCENTRICITY":"0.00019240","TLE_LINE2":"2 44934  53.0546  74.8159 0001924  98.3768 261.7439 15.06410677 94754","ARG_OF_PERICENTER":"98.3768","OBJECT_NAME":"STARLINK-1071","RA_OF_ASC_NODE":"74.8159","MEAN_ANOMALY":"261.7439","BSTAR":"0.00013442000000","EPHEMERIS_TYPE":"0","APOAPSIS":"548.513","REF_FRAME":"TEME","NORAD_CAT_ID":"44934","COUNTRY_CODE":"US","ELEMENT_SET_NO":"999","DECAY_DATE":null,"PERIOD":"95.591","GP_ID":"185347754","MEAN_MOTION_DDOT":"0.0000000000000","OBJECT_ID":"2020-001W","RCS_SIZE":"LARGE","MEAN_MOTION_DOT":"0.00001722","REV_AT_EPOCH":"9475","INCLINATION":"53.0546","OBJECT_TYPE":"PAYLOAD"},{"TLE_LINE2":"2 44935  53.0537  62.4610 0001112  58.6113 301.5013 15.71506298 94941","OBJECT_NAME":"STARLINK-1072","ARG_OF_PERICENTER":"58.6113","SITE":"AFETR","ECCENTRICITY":"0.00011120","TLE_LINE1":"1 44935U 20001X   21266.85902347  .00020719  00000-0  16285-3 0  9997","TIME_SYSTEM":"UTC","MEAN_ELEMENT_THEORY":"SGP4","FILE":"3125337","CLASSIFICATION_TYPE":"U","EPOCH":"2021-09-23T20:36:59.627808","PERIAPSIS":"353.845","LAUNCH_DATE":"2020-01-07","CENTER_NAME":"EARTH","MEAN_MOTION":"15.71506298","SEMIMAJOR_AXIS":"6732.728","INCLINATION":"53.0537","OBJECT_TYPE":"PAYLOAD","REV_AT_EPOCH":"9494","RCS_SIZE":"LARGE","MEAN_MOTION_DOT":"0.00020719","GP_ID":"185347999","OBJECT_ID":"2020-001X","MEAN_MOTION_DDOT":"0.0000000000000","PERIOD":"91.632","REF_FRAME":"TEME","NORAD_CAT_ID":"44935","COUNTRY_CODE":"US","DECAY_DATE":null,"ELEMENT_SET_NO":"999","BSTAR":"0.00016285000000","EPHEMERIS_TYPE":"0","APOAPSIS":"355.342","RA_OF_ASC_NODE":"62.4610","MEAN_ANOMALY":"301.5013"},{"OBJECT_ID":"2020-001Y","MEAN_MOTION_DDOT":"0.0000000000000","GP_ID":"185348255","MEAN_MOTION_DOT":"0.00160242","RCS_SIZE":"LARGE","REV_AT_EPOCH":"9553","OBJECT_TYPE":"PAYLOAD","INCLINATION":"53.0644","MEAN_ANOMALY":"293.1316","RA_OF_ASC_NODE":"20.2722","APOAPSIS":"341.936","EPHEMERIS_TYPE":"0","BSTAR":"0.00098344000000","ELEMENT_SET_NO":"999","DECAY_DATE":null,"COUNTRY_CODE":"US","NORAD_CAT_ID":"44936","REF_FRAME":"TEME","PERIOD":"91.354","TIME_SYSTEM":"UTC","MEAN_ELEMENT_THEORY":"SGP4","TLE_LINE1":"1 44936U 20001Y   21266.90348039  .00160242  00000-0  98344-3 0  9998","ECCENTRICITY":"0.00014440","SITE":"AFETR","OBJECT_NAME":"STARLINK-1078","ARG_OF_PERICENTER":"66.9855","TLE_LINE2":"2 44936  53.0644  20.2722 0001444  66.9855 293.1316 15.76289834 95537","SEMIMAJOR_AXIS":"6719.100","MEAN_MOTION":"15.76289834","CENTER_NAME":"EARTH","LAUNCH_DATE":"2020-01-07","PERIAPSIS":"339.995","EPOCH":"2021-09-23T21:41:00.705696","CLASSIFICATION_TYPE":"U","FILE":"3125337"},{"APOAPSIS":"548.569","EPHEMERIS_TYPE":"0","BSTAR":"-0.00002119900000","MEAN_ANOMALY":"262.9251","RA_OF_ASC_NODE":"74.3277","PERIOD":"95.592","ELEMENT_SET_NO":"999","DECAY_DATE":null,"COUNTRY_CODE":"US","NORAD_CAT_ID":"44937","REF_FRAME":"TEME","MEAN_MOTION_DOT":"-0.00000597","RCS_SIZE":"LARGE","MEAN_MOTION_DDOT":"0.0000000000000","OBJECT_ID":"2020-001Z","GP_ID":"185347507","OBJECT_TYPE":"PAYLOAD","INCLINATION":"53.0563","REV_AT_EPOCH":"9477","CENTER_NAME":"EARTH","LAUNCH_DATE":"2020-01-07","PERIAPSIS":"545.872","SEMIMAJOR_AXIS":"6925.356","MEAN_MOTION":"15.06397686","EPOCH":"2021-09-23T20:11:19.359456","CLASSIFICATION_TYPE":"U","FILE":"3125337","TLE_LINE1":"1 44937U 20001Z   21266.84119629 -.00000597  00000-0 -21199-4 0  9996","MEAN_ELEMENT_THEORY":"SGP4","TIME_SYSTEM":"UTC","ARG_OF_PERICENTER":"97.1960","OBJECT_NAME":"STARLINK-1079","TLE_LINE2":"2 44937  53.0563  74.3277 0001947  97.1960 262.9251 15.06397686 94779","ECCENTRICITY":"0.00019470","SITE":"AFETR"},{"MEAN_ANOMALY":"255.8483","RA_OF_ASC_NODE":"74.1687","APOAPSIS":"548.383","BSTAR":"0.00010842000000","EPHEMERIS_TYPE":"0","COUNTRY_CODE":"US","DECAY_DATE":null,"ELEMENT_SET_NO":"999","REF_FRAME":"TEME","NORAD_CAT_ID":"44938","PERIOD":"95.592","OBJECT_ID":"2020-001AA","MEAN_MOTION_DDOT":"0.0000000000000","GP_ID":"185347255","RCS_SIZE":"LARGE","MEAN_MOTION_DOT":"0.00001334","REV_AT_EPOCH":"9477","OBJECT_TYPE":"PAYLOAD","INCLINATION":"53.0547","SEMIMAJOR_AXIS":"6925.350","MEAN_MOTION":"15.06399544","CENTER_NAME":"EARTH","LAUNCH_DATE":"2020-01-07","PERIAPSIS":"546.047","CLASSIFICATION_TYPE":"U","EPOCH":"2021-09-23T20:59:05.729568","FILE":"3125337","MEAN_ELEMENT_THEORY":"SGP4","TIME_SYSTEM":"UTC","TLE_LINE1":"1 44938U 20001AA  21266.87437187  .00001334  00000-0  10842-3 0  9992","ECCENTRICITY":"0.00016870","SITE":"AFETR","ARG_OF_PERICENTER":"104.2693","OBJECT_NAME":"STARLINK-1082","TLE_LINE2":"2 44938  53.0547  74.1687 0001687 104.2693 255.8483 15.06399544 94772"},{"FILE":"3125337","CLASSIFICATION_TYPE":"U","EPOCH":"2021-09-23T17:58:36.697440","MEAN_MOTION":"15.06409056","SEMIMAJOR_AXIS":"6925.321","LAUNCH_DATE":"2020-01-07","PERIAPSIS":"545.829","CENTER_NAME":"EARTH","SITE":"AFETR","ECCENTRICITY":"0.00019590","TLE_LINE2":"2 44939  53.0559  74.7415 0001959  99.1872 260.9339 15.06409056 94759","ARG_OF_PERICENTER":"99.1872","OBJECT_NAME":"STARLINK-1083","TIME_SYSTEM":"UTC","MEAN_ELEMENT_THEORY":"SGP4","TLE_LINE1":"1 44939U 20001AB  21266.74903585  .00001282  00000-0  10494-3 0  9994","REF_FRAME":"TEME","NORAD_CAT_ID":"44939","COUNTRY_CODE":"US","DECAY_DATE":null,"ELEMENT_SET_NO":"999","PERIOD":"95.592","RA_OF_ASC_NODE":"74.7415","MEAN_ANOMALY":"260.9339","BSTAR":"0.00010494000000","EPHEMERIS_TYPE":"0","APOAPSIS":"548.542","REV_AT_EPOCH":"9475","INCLINATION":"53.0559","OBJECT_TYPE":"PAYLOAD","GP_ID":"185348499","OBJECT_ID":"2020-001AB","MEAN_MOTION_DDOT":"0.0000000000000","RCS_SIZE":"LARGE","MEAN_MOTION_DOT":"0.00001282"}];
